{
    "links": {
        "self": "http://www.neowsapp.com/rest/v1/neo/3252348?api_key=iIulBulltgU6a56xZRHN4H3l9WmuAYTsLGpBGhQ2"
    },
    "id": "3252348",
    "neo_reference_id": "3252348",
    "name": "(2004 RY164)",
    "designation": "2004 RY164",
    "nasa_jpl_url": "http://ssd.jpl.nasa.gov/sbdb.cgi?sstr=3252348",
    "absolute_magnitude_h": 20.7,
    "estimated_diameter": {
        "kilometers": {
            "estimated_diameter_min": 0.1925550782,
            "estimated_diameter_max": 0.4305662442
        },
        "meters": {
            "estimated_diameter_min": 192.5550781879,
            "estimated_diameter_max": 430.566244241
        },
        "miles": {
            "estimated_diameter_min": 0.1196481415,
            "estimated_diameter_max": 0.2675413778
        },
        "feet": {
            "estimated_diameter_min": 631.7424027221,
            "estimated_diameter_max": 1412.6189567557
        }
    },
    "is_potentially_hazardous_asteroid": false,
    "close_approach_data": [
        {
            "close_approach_date": "1979-09-26",
            "close_approach_date_full": "1979-Sep-26 23:44",
            "epoch_date_close_approach": 307237440000,
            "relative_velocity": {
                "kilometers_per_second": "17.7156282394",
                "kilometers_per_hour": "63776.2616618512",
                "miles_per_hour": "39628.0888087208"
            },
            "miss_distance": {
                "astronomical": "0.4398020353",
                "lunar": "171.0829917317",
                "kilometers": "65793447.702544811",
                "miles": "40882152.6717519518"
            },
            "orbiting_body": "Earth"
        },
        {
            "close_approach_date": "2004-09-27",
            "close_approach_date_full": "2004-Sep-27 23:06",
            "epoch_date_close_approach": 1096326360000,
            "relative_velocity": {
                "kilometers_per_second": "18.8268283161",
                "kilometers_per_hour": "67776.5819378531",
                "miles_per_hour": "42113.7322602177"
            },
            "miss_distance": {
                "astronomical": "0.3075672092",
                "lunar": "119.6436443788",
                "kilometers": "46011399.378164404",
                "miles": "28590157.8303566152"
            },
            "orbiting_body": "Earth"
        },
        {
            "close_approach_date": "2013-09-26",
            "close_approach_date_full": "2013-Sep-26 08:20",
            "epoch_date_close_approach": 1380183600000,
            "relative_velocity": {
                "kilometers_per_second": "17.6946899693",
                "kilometers_per_hour": "63700.8838893997",
                "miles_per_hour": "39581.2519922773"
            },
            "miss_distance": {
                "astronomical": "0.4537952277",
                "lunar": "176.5263435753",
                "kilometers": "67886799.480084999",
                "miles": "42182901.1498070262"
            },
            "orbiting_body": "Earth"
        }
    ],
    "orbital_data": {
        "orbit_id": "14",
        "orbit_determination_date": "2017-04-06 09:12:16",
        "first_observation_date": "2004-09-13",
        "last_observation_date": "2004-11-09",
        "data_arc_in_days": 57,
        "observations_used": 64,
        "orbit_uncertainty": "6",
        "minimum_orbit_intersection": ".306067",
        "jupiter_tisserand_invariant": "3.901",
        "epoch_osculation": "2459000.5",
        "eccentricity": ".3149513969780341",
        "semi_major_axis": "1.72571268228383",
        "inclination": "35.86005105323822",
        "ascending_node_longitude": "357.8487580588559",
        "orbital_period": "828.0397069646555",
        "perihelion_distance": "1.182197062215827",
        "perihelion_argument": "58.18528084240802",
        "aphelion_distance": "2.269228302351832",
        "perihelion_time": "2459129.319497759896",
        "mean_anomaly": "303.9942084860164",
        "mean_motion": ".4347617595775108",
        "equinox": "J2000",
        "orbit_class": {
            "orbit_class_type": "AMO",
            "orbit_class_description": "Near-Earth asteroid orbits similar to that of 1221 Amor",
            "orbit_class_range": "1.017 AU < q (perihelion) < 1.3 AU"
        }
    },
    "is_sentry_object": false
}